#dP2018  4  3  0  0  0.00000000      96 __u+U IGS08 FIT  IAC
## 1995 172800.00000000   900.00000000 58211 0.0000000000000
+   86   C01C02C03C04C05C06C08C09C10C11C12C13C14E01E02E03E04
+        E05E07E08E09E11E12E14E18E19E24E26E30G01G02G03G05G06
+        G07G08G09G10G11G12G13G14G15G16G17G18G19G20G21G22G23
+        G24G25G26G27G28G29G30G31G32J02J03R01R02R03R04R05R06
+        R07R08R09R10R11R13R14R15R16R17R18R19R20R21R22R23R24
+        R26  0  0  0  0  0  0  0  0  0  0  0  0  0  0  0  0
++        12 11 12 12 12  9  9  8  8  8  7  7  7  7  7  7  7
++         7  7  7  7  7  7  7  7  7  7  7  7  3  3  3  3  3
++         3  3  3  3  3  3  3  3  3  3  3  3  3  3  3  3  3
++         3  3  3  3  3  3  3  3  3 11 12  5  5  5  5  7  5
++         5  5  5  5  5  5  5  5  5  5  5  5  5  5  5  5  5
++         8  0  0  0  0  0  0  0  0  0  0  0  0  0  0  0  0
%c M  cc GPS ccc cccc cccc cccc cccc ccccc ccccc ccccc ccccc
%c cc cc ccc ccc cccc cccc cccc cccc ccccc ccccc ccccc ccccc
%f  1.2500000  1.025000000  0.00000000000  0.000000000000000
%f  0.0000000  0.000000000  0.00000000000  0.000000000000000
%i    0    0    0    0      0      0      0      0         0
%i    0    0    0    0      0      0      0      0         0
/* INFORMATION & ANALYSIS CENTER (IAC)            FINAL DATA
/* S/V CLOCKS ARE ALIGNED TO GPS & GLONASS TIME RESPECTIVELY
/* USING THE BROADCAST EPHEMERIS                            
/* PCV:IGS14_1992 OL/AL:FES2004  NONE     YN ORB:CoN CLK:CoN
*  2018 04 03 22  0  0.00000000
PC01 -32347.957853  27045.431365   -894.323086    566.637081
PC02   4436.587583  41927.993724    334.254383    631.095065
PC03 -14687.483634  39519.287322   -951.098529   -199.432467
PC04 -39579.418311  14475.992187   -554.837525     11.801132
PC05  21849.412712  36062.145533    551.493051   -204.522037
PC06 -10531.755466  22466.999120  34353.620201    695.684569
PC08 -10422.888734  35967.217879 -19066.222402    266.120548
PC09   6279.007670  28940.496477  30291.624990   -253.756499
PC10 -11710.489069  31620.434653 -25418.265829   -131.346196
PC11 -18594.471836 -15348.876948 -14050.050206   -453.865848
PC12 -10624.899041 -25531.642752   4126.929569    406.142734
PC13  -1038.908960  41749.065120  -4701.027969   -273.875784
PC14 -24724.598397  -7775.524687 -10209.467956    357.273612
PE01 -19910.106882  -2403.935783  21764.880864   -313.375655
PE02  19932.635458   2383.111106 -21762.182511      9.512132
PE03  27336.011492  11339.052417    280.868570    -17.010321
PE04 -24150.470714   3086.840664  16837.666365     -7.329178
PE05  14513.401627  19160.835011  17280.251628    291.424579
PE07   6769.808841 -15747.856200 -24122.217752     56.524518
PE08  24096.671756  -3204.491973 -16878.293991   6611.361176
PE09  -6638.041071  15658.537407  24235.566780   6830.184423
PE11  -4435.737065  26534.768092 -12370.630007   1838.187478
PE12 -14806.256998   9431.790713 -23826.098599   3858.335346
PE14    785.378067 -18276.945141  14856.322710   6604.938711
PE18  -4936.270926  23183.794105 -22179.433063   6308.968837
PE19 -26814.317078 -12350.613158  -2087.258647     20.980770
PE24 -15532.600931  22112.833138 -12072.639836   6778.153698
PE26  -8056.235128 -27879.466270  -5816.127100   6090.798073
PE30  25206.487110 -13956.326936  -6825.294141   5949.408837
PG01  13564.466899 -20110.856908  10320.100110    -38.331233
PG02 -15082.956691  -2175.866386 -21188.285910    155.140540
PG03  20349.424956 -12820.476856 -11229.617761     43.034708
PG05 -25647.010080   1141.586753  -7321.818348    -10.643508
PG06  -8984.525251 -15940.744094 -19205.924777    410.372374
PG07   4650.694845 -25491.532785   4809.744447    213.005126
PG08  15841.416908  -4296.786115  20963.949103    -96.588378
PG09  -2456.284894 -20131.076182 -17177.989472    509.764462
PG10  10624.658719  12518.747268  20946.524855    176.101023
PG11  10467.334019 -17943.048390  16072.705069   -737.533226
PG12 -22227.961263  10471.164355 -10004.906669    341.642939
PG13 -19250.389043  -6380.944888  17033.372839    -95.287446
PG14  18983.080391  17916.668079  -5102.529936    -95.817068
PG15 -16176.453655   5691.870822  20155.260375   -355.836355
PG16  25751.554337   1089.567356  -7426.162727     28.637690
PG17 -15296.618968 -21574.091353   3490.177838   -110.091204
PG18  15573.440599 -13184.659078  16451.816917     -7.706218
PG19 -18234.293731 -18706.808827  -4462.704039   -446.255530
PG20 -15934.334710  16288.715559  13478.269149    504.885210
PG21   -336.949562  25537.546960   8083.387519   -411.758580
PG22  24441.790036  -9787.331669  -3261.321442   -345.651315
PG23  10052.744041 -11774.812180 -21285.104888   -218.210768
PG24 -14450.552856  17713.646642  13161.344890    -48.113457
PG25 -10200.990496  15592.925331 -19008.452864   -563.949969
PG26  20093.414310   6657.186141 -16132.327274   -194.973542
PG27  21125.314810   9146.775091  13403.953730    370.180438
PG28  -6093.233645 -14039.095527  22327.424504    703.026105
PG29  -1475.081026  18250.882707 -19263.962760    471.964088
PG30  -1545.689997 -23126.138264  12834.569006     88.387479
PG31   9728.524517  14452.080020 -19884.013314    130.947723
PG32  15936.207974  20904.337499   4128.943131   -523.767685
PJ02 -32251.158475  25920.264194  12296.317723      0.465660
PJ03 -24275.343796  17678.712875 -24995.827867    -16.293655
PR01 -16014.209447 -11318.709491 -16317.662258     24.313160
PR02 -25003.203353  -4429.030265   2184.129138    303.044134
PR03 -17708.575194   4802.004906  17740.911471    128.481881
PR04    398.049382  11252.673232  22906.626905    255.787861
PR05  17451.773594  10952.696738  15026.823885   -276.656915
PR06  25090.609965   3605.081017  -2989.271665    129.889916
PR07  17469.103856  -4917.741426 -17905.705981    -34.246671
PR08    335.468746 -11101.499929 -22910.107521     22.761201
PR09  16700.543298  -4683.207343 -18668.956271     37.191405
PR10  18462.356859 -17095.135906  -3968.683184     21.814153
PR11   9262.578018 -19499.476271  13565.116884    -25.586146
PR13 -16639.352215   5553.594830  18495.614616     -9.079283
PR14 -18502.102730  17067.990685   4157.740103     26.019274
PR15 -12006.311289  19906.544232 -10377.260482     -8.260979
PR16   4855.509012  10754.365364 -22628.923651     89.381470
PR17  -7492.646783  10289.473413 -22087.540561    121.884718
PR18   1677.285982  22795.152542 -11378.852988    190.597275
PR19   9510.194368  22903.070737   5994.848389    -49.072624
PR20  12242.574599   8632.401728  20674.481546   -333.056324
PR21   7268.576871 -10595.518493  22043.559276     22.356643
PR22  -2619.699213 -23375.427940   9705.379051    -31.943327
PR23 -11016.570348 -20968.120687  -9458.472427    145.594304
PR24 -12339.119046  -7509.721516 -21037.821377   -164.525035
PR26  12478.004306   8779.596295  20451.017964      9.989467
EOF
